{"stations":[{"id":"JR-East.ChuoRapid.Tokyo","line_id":"JR-East.ChuoRapid","name_ja":"æ±äº¬","name_en":"Tokyo","coord":{"lon":139.76704,"lat":35.6813}},{"id":"JR-East.ChuoRapid.Kanda","line_id":"JR-East.ChuoRapid","name_ja":"ç¥ç°","name_en":"Kanda","coord":{"lon":139.77065,"lat":35.69157}},{"id":"JR-East.ChuoRapid.Ochanomizu","line_id":"JR-East.ChuoRapid","name_ja":"å¾¡è¶ãæ°´","name_en":"Ochanomizu","coord":{"lon":139.7651,"lat":35.69935}},{"id":"JR-East.ChuoRapid.Yotsuya","line_id":"JR-East.ChuoRapid","name_ja":"åãè°·","name_en":"Yotsuya","coord":{"lon":139.73038,"lat":35.6849}},{"id":"JR-East.ChuoRapid.Shinjuku","line_id":"JR-East.ChuoRapid","name_ja":"æ°å®¿","name_en":"Shinjuku","coord":{"lon":139.70038,"lat":35.69018}},{"id":"JR-East.ChuoRapid.Nakano","line_id":"JR-East.ChuoRapid","name_ja":"ä¸­é","name_en":"Nakano","coord":{"lon":139.66594,"lat":35.70573}},{"id":"JR-East.ChuoRapid.Koenji","line_id":"JR-East.ChuoRapid","name_ja":"é«åå¯º","name_en":"Koenji","coord":{"lon":139.64955,"lat":35.70518}},{"id":"JR-East.ChuoRapid.Asagaya","line_id":"JR-East.ChuoRapid","name_ja":"é¿ä½ã±è°·","name_en":"Asagaya","coord":{"lon":139.63566,"lat":35.70462}},{"id":"JR-East.ChuoRapid.Ogikubo","line_id":"JR-East.ChuoRapid","name_ja":"è»çªª","name_en":"Ogikubo","coord":{"lon":139.62011,"lat":35.70434}},{"id":"JR-East.ChuoRapid.NishiOgikubo","line_id":"JR-East.ChuoRapid","name_ja":"è¥¿è»çªª","name_en":"Nishi-Ogikubo","coord":{"lon":139.59928,"lat":35.70351}},{"id":"JR-East.ChuoRapid.Kichijoji","line_id":"JR-East.ChuoRapid","name_ja":"åç¥¥å¯º","name_en":"Kichijoji","coord":{"lon":139.57984,"lat":35.70295}},{"id":"JR-East.ChuoRapid.Mitaka","line_id":"JR-East.ChuoRapid","name_ja":"ä¸é·¹","name_en":"Mitaka","coord":{"lon":139.56067,"lat":35.70268}},{"id":"JR-East.ChuoRapid.MusashiSakai","line_id":"JR-East.ChuoRapid","name_ja":"æ­¦èµå¢","name_en":"Musashi-Sakai","coord":{"lon":139.54345,"lat":35.70184}},{"id":"JR-East.ChuoRapid.HigashiKoganei","line_id":"JR-East.ChuoRapid","name_ja":"æ±å°éäº","name_en":"Higashi-Koganei","coord":{"lon":139.52373,"lat":35.70156}},{"id":"JR-East.ChuoRapid.MusashiKoganei","line_id":"JR-East.ChuoRapid","name_ja":"æ­¦èµå°éäº","name_en":"Musashi-Koganei","coord":{"lon":139.50595,"lat":35.70101}},{"id":"JR-East.ChuoRapid.Kokubunji","line_id":"JR-East.ChuoRapid","name_ja":"å½åå¯º","name_en":"Kokubunji","coord":{"lon":139.48096,"lat":35.6999}},{"id":"JR-East.ChuoRapid.NishiKokubunji","line_id":"JR-East.ChuoRapid","name_ja":"è¥¿å½åå¯º","name_en":"Nishi-Kokubunji","coord":{"lon":139.46596,"lat":35.69962}},{"id":"JR-East.ChuoRapid.Kunitachi","line_id":"JR-East.ChuoRapid","name_ja":"å½ç«","name_en":"Kunitachi","coord":{"lon":139.44651,"lat":35.69906}},{"id":"JR-East.ChuoRapid.Tachikawa","line_id":"JR-East.ChuoRapid","name_ja":"ç«å·","name_en":"Tachikawa","coord":{"lon":139.41374,"lat":35.69795}},{"id":"JR-East.ChuoRapid.Hino","line_id":"JR-East.ChuoRapid","name_ja":"æ¥é","name_en":"Hino","coord":{"lon":139.39346,"lat":35.67851}},{"id":"JR-East.ChuoRapid.Toyoda","line_id":"JR-East.ChuoRapid","name_ja":"è±ç°","name_en":"Toyoda","coord":{"lon":139.38124,"lat":35.65934}},{"id":"JR-East.ChuoRapid.Hachioji","line_id":"JR-East.ChuoRapid","name_ja":"å«çå­","name_en":"Hachioji","coord":{"lon":139.33903,"lat":35.65545}},{"id":"JR-East.ChuoRapid.NishiHachioji","line_id":"JR-East.ChuoRapid","name_ja":"è¥¿å«çå­","name_en":"Nishi-Hachioji","coord":{"lon":139.31181,"lat":35.65601}},{"id":"JR-East.ChuoRapid.Takao","line_id":"JR-East.ChuoRapid","name_ja":"é«å°¾","name_en":"Takao","coord":{"lon":139.28264,"lat":35.6424}}]}
